#dP2024  2 14  0  0  0.00000000      97 __u+U IGS20 FIT  IAC
## 2301 259200.00000000   900.00000000 60354 0.0000000000000
+  119   C06C07C08C09C10C11C12C13C14C16C19C20C21C22C23C24C25
+        C26C27C28C29C30C32C33C34C35C36C37C38C39C40C41C42C43
+        C44C45C46E02E03E04E05E07E08E09E10E11E12E13E14E15E18
+        E19E21E24E25E26E27E30E31E33E34E36G01G02G03G04G05G06
+        G07G08G09G10G11G12G13G14G15G16G17G18G19G20G21G22G23
+        G24G25G26G27G28G29G30G31G32J02J03J04R01R02R03R04R05
+        R07R08R09R11R12R13R14R15R16R17R18R19R20R21R22R24R26
++         7  7  7  7  7  7  7  7  7  7  5  5  6  6  5  6  6
++         6  6  6  6  5  5  6  6  6  6  5  6  6  6  6  6  6
++         6  6  5  4  4  4  4  4  4  4  4  4  5  4  4  4  4
++         4  4  4  4  4  4  5  4  4  4  4  4  4  3  3  3  3
++         3  4  3  4  3  3  3  3  4  3  3  3  3  3  3  3  3
++         3  3  3  3  3  3  3  3  3  9  9  9  8  7  6  7  7
++         6  6  6  6  7  7  7  7  7  7  7  7  7  6  6  7  8
%c M  cc GPS ccc cccc cccc cccc cccc ccccc ccccc ccccc ccccc
%c cc cc ccc ccc cccc cccc cccc cccc ccccc ccccc ccccc ccccc
%f  1.2500000  1.025000000  0.00000000000  0.000000000000000
%f  0.0000000  0.000000000  0.00000000000  0.000000000000000
%i    0    0    0    0      0      0      0      0         0
%i    0    0    0    0      0      0      0      0         0
/* INFORMATION & ANALYSIS CENTER (IAC)            FINAL DATA
/* S/V CLOCKS ARE ALIGNED TO GNSS TIME                      
/* G:C1WC2W R:C1PC2P E:C1XC5X C:C2IC6I J:C1CC2S             
/* PCV:IGS20_2290 OL/AL:FES2004  NONE     YN ORB:CoN CLK:CoN
*  2024 02 14 17 15  0.00000000
PC06 -17901.382326  36575.011548 -11478.066916    110.027721
PC07  -3113.046148  34736.191522 -23467.419423   -801.125614
PC08 -10530.371874  18995.567157  36108.301161     38.359463
PC09 -12369.676579  35568.624888 -19135.705106   -489.828970
PC10   3568.713903  37233.203301 -18594.168147     85.143823
PC11 -12356.394864  24612.436897  -4422.265757    410.522249
PC12 -17339.034745   9602.470106 -19605.691165    769.989955
PC13   -596.146548  21814.463657  36243.333195    417.324128
PC14  -5668.990794  16162.507543  22036.437755    190.030488
PC16 -19807.446256  36217.867483  -9139.267654   -339.645776
PC19  -3255.883805 -21493.458956 -17483.126809   -926.867957
PC20  12165.279981  -9804.736242 -23106.269400   -162.628932
PC21 -21642.465208  -9012.310976  15174.827253   -962.153696
PC22 -17677.588200 -21559.569481  -1492.882365   -109.854760
PC23  12870.726855  12945.559183 -21114.725158   -781.187476
PC24 -24232.898508  11074.682550  -8278.307997    884.310288
PC25  -7048.237768  17086.120340 -20917.207194    326.122278
PC26 -26522.937259   -273.731632   8595.125313   -249.166054
PC27  16534.570280    214.458127  22458.927681    271.154514
PC28   8620.143540  17635.287459  19842.734592    206.268808
PC29   5283.337127 -27122.168175  -3883.547516    241.763457
PC30  15685.160548 -18455.632683  13831.166823    -25.207920
PC32  21708.862174   8918.814939 -15067.723078   -567.600821
PC33   3233.165976  21429.779281  17577.689114   -948.771536
PC34 -15231.637797  19723.816928 -12595.544490    369.287261
PC35  -9303.228927 -17371.997555 -19754.362212    433.690838
PC36   8033.189749 -16900.707353  20718.741620    -15.078235
PC37  26395.503140   1194.491066  -9018.635733   -936.296433
PC38 -19213.541871  19374.343892  32153.671196    136.802436
PC39 -21983.875119  36053.015364  -2194.529136     -7.132816
PC40  -6953.951215  30984.432121 -27597.711665    -56.490690
PC41  17259.431137  21795.885652   2384.512067   -890.872990
PC42 -13463.934662   8373.227916  23012.752204   -454.473197
PC43  -5948.594626  27116.385245   2966.554807     60.425287
PC44 -16655.110060    220.372261 -22407.028190    384.446241
PC45 -13024.470408 -12761.902109  21107.297722    -70.097233
PC46  23802.969246 -11419.237706   9092.826743   -123.829446
PE02   4633.133042  18679.594394 -22507.199759    103.384643
PE03   2302.354524  29381.859822   2701.401163    -93.818088
PE04 -13850.379993 -21211.651606  15318.522069   -327.248232
PE05 -10415.509524  20292.175028  18871.339845   4720.021535
PE07  17167.222876   1197.413513 -24075.775622   -103.765753
PE08  13474.715834  21778.349928 -14833.653576   -223.855985
PE09 -17045.086771  -1368.914788  24165.599038   -336.011591
PE10 -20175.821970  -1750.435442 -21589.260443   -601.934176
PE11 -24724.413286   7464.611591 -14484.527267   3246.706623
PE12 -13233.897902  -9819.334120 -24588.722730   -906.301267
PE13  24508.277622  -6931.318045  15079.337551    -20.187149
PE14 -17299.851280   8468.795783 -21381.986491     39.351688
PE15  12688.761400  10215.174444  24724.363408    -85.800521
PE18   8373.811891 -24918.658457  12369.579483    326.510915
PE19   -676.044508 -29191.446392  -4833.024632   -615.400204
PE21  15650.996465 -10611.115666  22765.707583   -579.014215
PE24 -27724.848450  -4303.540072  -9416.478190   -598.147381
PE25 -16003.272099  10373.189230 -22638.709464      0.883032
PE26  21474.145108 -20003.362222  -3826.601893    368.724930
PE27  27672.974759   3980.704972   9737.051635   -274.677205
PE30  23032.871713  16248.283986  -9083.445831      3.030101
PE31 -23233.450786 -16045.312299   8870.193408    -16.000584
PE33   6926.796655 -21256.798894 -19391.053347      7.586562
PE34  -6338.943096  21127.312394  19739.948791    -94.627778
PE36 -21813.850219  19758.777360   3234.900328   -185.915945
PG01   6785.758273 -19367.971839 -17014.572900    169.539006
PG02  13056.473752 -20982.543562  -8888.751067   -485.485688
PG03   2596.637083 -14777.398857 -22069.142168    193.007657
PG04   2451.065543 -25154.255030  -7921.348486    291.629600
PG05 -15624.938280   8864.334207  19420.257575   -161.810183
PG06 -20148.624944   1487.103651 -17227.840060    407.170486
PG07  -6111.516921 -14873.538820  21570.042047    -61.893770
PG08   7222.580765 -20141.980069  15357.251121   -167.023792
PG09  -7708.368335 -24986.362573   4401.788457     92.086110
PG10  24250.741814  11041.636132   2417.408914      0.458488
PG11 -23157.466431  10540.262363  -7511.357690   -575.712638
PG12  -4290.764245  14822.188492 -21909.790081   -477.961567
PG13 -13173.174347  11777.541196  19555.249336    625.505362
PG14 -22263.240797 -13580.606191   5567.877673    325.673936
PG15  -4850.792859  21039.130830  14841.491717    127.677352
PG16  20962.315631  -2244.710513  16094.136442   -362.709753
PG17 -12377.314361 -17078.849960 -15623.785149    716.992924
PG18   6443.715114  13733.304370  21800.059394   -555.517423
PG19 -14731.261184  -8030.643604 -20860.637475    440.634587
PG20 -24457.341563   2435.401239   9917.547615    387.509664
PG21  16351.778798 -19750.265282  -3994.033290    134.938531
PG22 -24140.345832 -10443.617077  -1847.554616     31.266927
PG23  16888.753702  15589.406462  13497.706771    156.138269
PG24 -13460.110193  21370.002959  -7915.558543   -431.675829
PG25   8175.518029  17321.825353 -18849.181612    488.572871
PG26  25797.288652   2750.690046   6376.960513    190.237863
PG27  13513.469425  -8011.377301  21075.130378     -4.010687
PG28  18866.860706    908.591714 -18690.381797   -130.993613
PG29   4254.647979  25964.788310   3152.634518   -606.983117
PG30 -15701.446884  -6771.084368  20509.927622   -432.613364
PG31  22947.580144  -6953.770896 -12061.158924   -227.768706
PG32  14636.430095  13492.778676 -17482.757356   -611.607968
PJ02 -27293.156867  15195.292445 -23698.056211     -1.985850
PJ03 -27135.985217  32019.344749    723.607113     -0.226746
PJ04 -23848.467123  28214.105831  26186.077258     50.913508
PR01  15872.879525  18785.316211  -6744.054702     77.168926
PR02  14312.211899   5588.799424 -20333.547942    -22.464945
PR03   5226.654090 -11454.551072 -22122.602438     94.511425
PR04  -6466.179912 -21658.884669 -11773.340657    223.430527
PR05 -14588.600694 -20320.471733   4942.339797    126.909113
PR07  -4626.822428  12283.492941  21926.737291     75.813347
PR08   6679.211176  21731.606254  11666.629590    -74.410845
PR09 -25521.043539   1231.353816    153.740999    169.979902
PR11  -2087.161795  10969.078873 -22929.955903     34.347005
PR12  17975.635609   7448.519695 -16486.818191     36.745951
PR13  25380.214977    295.816081  -2587.127999    -44.347105
PR14  18147.526747  -8325.903967  15868.464836     26.067181
PR15    471.491822 -11082.443517  22981.054275     82.198322
PR16 -17782.740250  -7357.158568  16762.073489     23.283079
PR17  14360.273837 -20313.207043   5728.765985     61.227311
PR18   7042.534988 -21994.430870 -10750.081264    127.380937
PR19  -2483.776533 -13978.749707 -21187.469302   -265.799336
PR20 -14211.798430   5735.682788 -20394.707639   -108.260757
PR21 -14415.230465  20313.564547  -5449.564440    -76.956652
PR22  -6805.090043  21663.913135  11667.710250    108.093738
PR24  14482.685284  -6611.446498  19952.183044    -43.906329
PR26   6208.337509  21384.423071  12447.111244   -198.392303
EOF
